{
  "type": "FeatureCollection",
  "features": [
    {
      "type": "Feature",
      "properties": {
        "norad_id": 41772,
        "name": "SKYSAT-C5",
        "group": "resource",
        "lat": 77.50359681659106,
        "lon": -4.068861069539405,
        "alt_km": 454.2108824291681,
        "timestamp": "2025-12-12T05:47:28.429374+00:00",
        "meta_object_name": "SKYSAT-C5",
        "meta_object_id": "2016-058C",
        "meta_epoch": "2025-12-11T13:47:56.890464",
        "meta_mean_motion": 15.34906129,
        "meta_eccentricity": 4.671e-05,
        "meta_inclination": 97.0751,
        "meta_ra_of_asc_node": 29.3759,
        "meta_arg_of_pericenter": 257.3192,
        "meta_mean_anomaly": 102.8,
        "meta_ephemeris_type": 0,
        "meta_classification_type": "U",
        "meta_norad_cat_id": 41772,
        "meta_element_set_no": 999,
        "meta_rev_at_epoch": 51498,
        "meta_bstar": 0.00046260661,
        "meta_mean_motion_dot": 0.00015598,
        "meta_mean_motion_ddot": 0,
        "tle_line1": "1 41772U 16058C   25345.57496401  .00015598  00000+0  46261-3 0  9995",
        "tle_line2": "2 41772  97.0751  29.3759 0000467 257.3192 102.8000 15.34906129514981"
      },
      "geometry": {
        "type": "Point",
        "coordinates": [
          -4.068861069539405,
          77.50359681659106
        ]
      }
    },
    {
      "type": "Feature",
      "properties": {
        "norad_id": 41773,
        "name": "SKYSAT-C2",
        "group": "resource",
        "lat": 82.4453948597428,
        "lon": -57.86674347008894,
        "alt_km": 444.96018615254707,
        "timestamp": "2025-12-12T05:47:28.429384+00:00",
        "meta_object_name": "SKYSAT-C2",
        "meta_object_id": "2016-058D",
        "meta_epoch": "2025-12-12T00:43:35.831712",
        "meta_mean_motion": 15.37243964,
        "meta_eccentricity": 0.00043205,
        "meta_inclination": 97.0369,
        "meta_ra_of_asc_node": 10.587,
        "meta_arg_of_pericenter": 36.2464,
        "meta_mean_anomaly": 323.9073,
        "meta_ephemeris_type": 0,
        "meta_classification_type": "U",
        "meta_norad_cat_id": 41773,
        "meta_element_set_no": 999,
        "meta_rev_at_epoch": 51625,
        "meta_bstar": 0.00047659337,
        "meta_mean_motion_dot": 0.00017332,
        "meta_mean_motion_ddot": 0,
        "tle_line1": "1 41773U 16058D   25346.03027583  .00017332  00000+0  47659-3 0  9999",
        "tle_line2": "2 41773  97.0369  10.5870 0004320  36.2464 323.9073 15.37243964516253"
      },
      "geometry": {
        "type": "Point",
        "coordinates": [
          -57.86674347008894,
          82.4453948597428
        ]
      }
    },
    {
      "type": "Feature",
      "properties": {
        "norad_id": 41774,
        "name": "SKYSAT-C3",
        "group": "resource",
        "lat": -80.23238764165772,
        "lon": 155.05200186885781,
        "alt_km": 441.64678639372505,
        "timestamp": "2025-12-12T05:47:28.429395+00:00",
        "meta_object_name": "SKYSAT-C3",
        "meta_object_id": "2016-058E",
        "meta_epoch": "2025-12-11T23:59:24.814464",
        "meta_mean_motion": 15.44352987,
        "meta_eccentricity": 0.0001633,
        "meta_inclination": 96.9304,
        "meta_ra_of_asc_node": 19.7798,
        "meta_arg_of_pericenter": 106.9783,
        "meta_mean_anomaly": 253.1646,
        "meta_ephemeris_type": 0,
        "meta_classification_type": "U",
        "meta_norad_cat_id": 41774,
        "meta_element_set_no": 999,
        "meta_rev_at_epoch": 51714,
        "meta_bstar": 0.00054231426,
        "meta_mean_motion_dot": 0.00024978,
        "meta_mean_motion_ddot": 0,
        "tle_line1": "1 41774U 16058E   25345.99959276  .00024978  00000+0  54231-3 0  9995",
        "tle_line2": "2 41774  96.9304  19.7798 0001633 106.9783 253.1646 15.44352987517147"
      },
      "geometry": {
        "type": "Point",
        "coordinates": [
          155.05200186885781,
          -80.23238764165772
        ]
      }
    },
    {
      "type": "Feature",
      "properties": {
        "norad_id": 41785,
        "name": "ALSAT 1B",
        "group": "resource",
        "lat": -69.69688389355115,
        "lon": 156.36025543233822,
        "alt_km": 668.0288766906979,
        "timestamp": "2025-12-12T05:47:28.429406+00:00",
        "meta_object_name": "ALSAT 1B",
        "meta_object_id": "2016-059C",
        "meta_epoch": "2025-12-11T23:45:37.841184",
        "meta_mean_motion": 14.72073635,
        "meta_eccentricity": 0.00106952,
        "meta_inclination": 97.7817,
        "meta_ra_of_asc_node": 357.8119,
        "meta_arg_of_pericenter": 105.1916,
        "meta_mean_anomaly": 255.0475,
        "meta_ephemeris_type": 0,
        "meta_classification_type": "U",
        "meta_norad_cat_id": 41785,
        "meta_element_set_no": 999,
        "meta_rev_at_epoch": 49303,
        "meta_bstar": 0.0001141042,
        "meta_mean_motion_dot": 6.71e-06,
        "meta_mean_motion_ddot": 0,
        "tle_line1": "1 41785U 16059C   25345.99002131  .00000671  00000+0  11410-3 0  9993",
        "tle_line2": "2 41785  97.7817 357.8119 0010695 105.1916 255.0475 14.72073635493039"
      },
      "geometry": {
        "type": "Point",
        "coordinates": [
          156.36025543233822,
          -69.69688389355115
        ]
      }
    },
    {
      "type": "Feature",
      "properties": {
        "norad_id": 41787,
        "name": "PATHFINDER 1",
        "group": "resource",
        "lat": -22.041424686054693,
        "lon": -7.774880837408834,
        "alt_km": 680.3723922655663,
        "timestamp": "2025-12-12T05:47:28.429416+00:00",
        "meta_object_name": "PATHFINDER 1",
        "meta_object_id": "2016-059E",
        "meta_epoch": "2025-12-11T23:20:45.577536",
        "meta_mean_motion": 14.67319027,
        "meta_eccentricity": 0.00300468,
        "meta_inclination": 97.8139,
        "meta_ra_of_asc_node": 348.7819,
        "meta_arg_of_pericenter": 83.5355,
        "meta_mean_anomaly": 276.927,
        "meta_ephemeris_type": 0,
        "meta_classification_type": "U",
        "meta_norad_cat_id": 41787,
        "meta_element_set_no": 999,
        "meta_rev_at_epoch": 49225,
        "meta_bstar": 0.00023550064,
        "meta_mean_motion_dot": 1.291e-05,
        "meta_mean_motion_ddot": 0,
        "tle_line1": "1 41787U 16059E   25345.97274974  .00001291  00000+0  23550-3 0  9996",
        "tle_line2": "2 41787  97.8139 348.7819 0030046  83.5355 276.9270 14.67319027492253"
      },
      "geometry": {
        "type": "Point",
        "coordinates": [
          -7.774880837408834,
          -22.041424686054693
        ]
      }
    },
    {
      "type": "Feature",
      "properties": {
        "norad_id": 41790,
        "name": "SCATSAT 1",
        "group": "resource",
        "lat": -49.45611197747128,
        "lon": 52.54514536274651,
        "alt_km": 679.006990475481,
        "timestamp": "2025-12-12T05:47:28.429426+00:00",
        "meta_object_name": "SCATSAT 1",
        "meta_object_id": "2016-059H",
        "meta_epoch": "2025-12-11T15:24:20.808864",
        "meta_mean_motion": 14.78930902,
        "meta_eccentricity": 0.00562291,
        "meta_inclination": 98.1464,
        "meta_ra_of_asc_node": 42.2983,
        "meta_arg_of_pericenter": 131.4501,
        "meta_mean_anomaly": 229.1559,
        "meta_ephemeris_type": 0,
        "meta_classification_type": "U",
        "meta_norad_cat_id": 41790,
        "meta_element_set_no": 999,
        "meta_rev_at_epoch": 7386,
        "meta_bstar": 0.00036012993,
        "meta_mean_motion_dot": 2.671e-05,
        "meta_mean_motion_ddot": 0,
        "tle_line1": "1 41790U 16059H   25345.64190751  .00002671  00000+0  36013-3 0  9995",
        "tle_line2": "2 41790  98.1464  42.2983 0056229 131.4501 229.1559 14.78930902 73862"
      },
      "geometry": {
        "type": "Point",
        "coordinates": [
          52.54514536274651,
          -49.45611197747128
        ]
      }
    },
    {
      "type": "Feature",
      "properties": {
        "norad_id": 41875,
        "name": "GOKTURK 1A",
        "group": "resource",
        "lat": 62.3067980517377,
        "lon": -137.2168673854412,
        "alt_km": 677.3003462228435,
        "timestamp": "2025-12-12T05:47:28.429437+00:00",
        "meta_object_name": "GOKTURK 1A",
        "meta_object_id": "2016-073A",
        "meta_epoch": "2025-12-11T22:56:07.911168",
        "meta_mean_motion": 14.62778347,
        "meta_eccentricity": 0.00012246,
        "meta_inclination": 98.1424,
        "meta_ra_of_asc_node": 238.3311,
        "meta_arg_of_pericenter": 77.8881,
        "meta_mean_anomaly": 282.2458,
        "meta_ephemeris_type": 0,
        "meta_classification_type": "U",
        "meta_norad_cat_id": 41875,
        "meta_element_set_no": 999,
        "meta_rev_at_epoch": 48145,
        "meta_bstar": 0.00018028451,
        "meta_mean_motion_dot": 8.73e-06,
        "meta_mean_motion_ddot": 0,
        "tle_line1": "1 41875U 16073A   25345.95564712  .00000873  00000+0  18028-3 0  9999",
        "tle_line2": "2 41875  98.1424 238.3311 0001224  77.8881 282.2458 14.62778347481456"
      },
      "geometry": {
        "type": "Point",
        "coordinates": [
          -137.2168673854412,
          62.3067980517377
        ]
      }
    }
  ]
}